ONEWEB-0502             
1 54120U 22138H   24083.13580675  .00000018  00000+0  13609-4 0  9991
2 54120  87.9099 107.3965 0001879  81.1403 278.9942 13.19723771 70064
ONEWEB-0503             
1 54121U 22138J   24083.04895451  .00000036  00000+0  57532-4 0  9996
2 54121  87.9099 107.4208 0002370  92.0394 268.1010 13.19725582 70040
ONEWEB-0504             
1 54122U 22138K   24082.58139512  .00000105  00000+0  22887-3 0  9995
2 54122  87.9103 107.5183 0002085  81.6782 278.4587 13.19726811 69999
ONEWEB-0506             
1 54124U 22138M   24082.62877776 -.00000116  00000+0 -32233-3 0  9993
2 54124  87.9100 107.5013 0001812  83.9202 276.2137 13.19723994 69108
ONEWEB-0508             
1 54126U 22138P   24082.57034636  .00000054  00000+0  10178-3 0  9992
2 54126  87.9107 107.5231 0001613  80.2561 279.8754 13.19722887 69997
